[{"OBJECT_NAME":"CENTISPACE-1 S7","OBJECT_ID":"2025-007B","EPOCH":"2026-03-09T21:41:40.317504","MEAN_MOTION":13.83163062,"ECCENTRICITY":0.00097398,"INCLINATION":54.9754,"RA_OF_ASC_NODE":279.2765,"ARG_OF_PERICENTER":301.0996,"MEAN_ANOMALY":58.9005,"EPHEMERIS_TYPE":0,"CLASSIFICATION_TYPE":"U","NORAD_CAT_ID":62576,"ELEMENT_SET_NO":999,"REV_AT_EPOCH":6100,"BSTAR":0.00010048958,"MEAN_MOTION_DOT":-3.1e-7,"MEAN_MOTION_DDOT":0},{"OBJECT_NAME":"COSMOS 2327","OBJECT_ID":"1996-004A","EPOCH":"2026-03-09T21:00:45.465408","MEAN_MOTION":13.74761035,"ECCENTRICITY":0.00481282,"INCLINATION":82.9861,"RA_OF_ASC_NODE":197.9068,"ARG_OF_PERICENTER":174.3466,"MEAN_ANOMALY":304.402,"EPHEMERIS_TYPE":0,"CLASSIFICATION_TYPE":"U","NORAD_CAT_ID":23773,"ELEMENT_SET_NO":999,"REV_AT_EPOCH":51198,"BSTAR":3.7523664e-5,"MEAN_MOTION_DOT":5.1e-7,"MEAN_MOTION_DDOT":0}]
